{
    "links": {
        "self": "http://www.neowsapp.com/rest/v1/neo/3662484?api_key=iIulBulltgU6a56xZRHN4H3l9WmuAYTsLGpBGhQ2"
    },
    "id": "3662484",
    "neo_reference_id": "3662484",
    "name": "(2014 DR21)",
    "designation": "2014 DR21",
    "nasa_jpl_url": "http://ssd.jpl.nasa.gov/sbdb.cgi?sstr=3662484",
    "absolute_magnitude_h": 25.6,
    "estimated_diameter": {
        "kilometers": {
            "estimated_diameter_min": 0.0201629919,
            "estimated_diameter_max": 0.0450858206
        },
        "meters": {
            "estimated_diameter_min": 20.1629919443,
            "estimated_diameter_max": 45.0858206172
        },
        "miles": {
            "estimated_diameter_min": 0.0125286985,
            "estimated_diameter_max": 0.0280150214
        },
        "feet": {
            "estimated_diameter_min": 66.1515504905,
            "estimated_diameter_max": 147.9193637137
        }
    },
    "is_potentially_hazardous_asteroid": false,
    "close_approach_data": [
        {
            "close_approach_date": "2014-02-17",
            "close_approach_date_full": "2014-Feb-17 03:52",
            "epoch_date_close_approach": 1392609120000,
            "relative_velocity": {
                "kilometers_per_second": "6.4407170453",
                "kilometers_per_hour": "23186.5813630545",
                "miles_per_hour": "14407.2399586158"
            },
            "miss_distance": {
                "astronomical": "0.0627672438",
                "lunar": "24.4164578382",
                "kilometers": "9389845.978250706",
                "miles": "5834579.7378275028"
            },
            "orbiting_body": "Earth"
        }
    ],
    "orbital_data": {
        "orbit_id": "7",
        "orbit_determination_date": "2017-04-06 08:42:20",
        "first_observation_date": "2014-02-24",
        "last_observation_date": "2014-03-07",
        "data_arc_in_days": 11,
        "observations_used": 21,
        "orbit_uncertainty": "8",
        "minimum_orbit_intersection": ".0573307",
        "jupiter_tisserand_invariant": "3.686",
        "epoch_osculation": "2456714.5",
        "eccentricity": ".4780977982473527",
        "semi_major_axis": "1.99928129102766",
        "inclination": "5.775214531263792",
        "ascending_node_longitude": "326.1415245714896",
        "orbital_period": "1032.545693721563",
        "perihelion_distance": "1.043429307710211",
        "perihelion_argument": "173.1320618847211",
        "aphelion_distance": "2.955133274345109",
        "perihelion_time": "2456698.861616087920",
        "mean_anomaly": "5.452367137436283",
        "mean_motion": ".3486528510931719",
        "equinox": "J2000",
        "orbit_class": {
            "orbit_class_type": "AMO",
            "orbit_class_description": "Near-Earth asteroid orbits similar to that of 1221 Amor",
            "orbit_class_range": "1.017 AU < q (perihelion) < 1.3 AU"
        }
    },
    "is_sentry_object": false
}